{
  "type": "FeatureCollection",
  "features": [
    {
      "type": "Feature",
      "properties": {
        "norad_id": 40069,
        "name": "METEOR-M 2",
        "group": "weather",
        "lat": -72.25546115914939,
        "lon": 124.74480571586462,
        "alt_km": 826.7016321087367,
        "timestamp": "2025-12-21T07:34:34.187516+00:00",
        "meta_object_name": "METEOR-M 2",
        "meta_object_id": "2014-037A",
        "meta_epoch": "2025-12-20T21:56:10.305024",
        "meta_mean_motion": 14.21389889,
        "meta_eccentricity": 0.00054373,
        "meta_inclination": 98.4903,
        "meta_ra_of_asc_node": 332.185,
        "meta_arg_of_pericenter": 183.861,
        "meta_mean_anomaly": 176.2527,
        "meta_ephemeris_type": 0,
        "meta_classification_type": "U",
        "meta_norad_cat_id": 40069,
        "meta_element_set_no": 999,
        "meta_rev_at_epoch": 59399,
        "meta_bstar": 9.1471631e-05,
        "meta_mean_motion_dot": 1.58e-06,
        "meta_mean_motion_ddot": 0,
        "tle_line1": "1 40069U 14037A   25354.91400816  .00000158  00000+0  91472-4 0  9992",
        "tle_line2": "2 40069  98.4903 332.1850 0005437 183.8610 176.2527 14.21389889593990"
      },
      "geometry": {
        "type": "Point",
        "coordinates": [
          124.74480571586462,
          -72.25546115914939
        ]
      }
    },
    {
      "type": "Feature",
      "properties": {
        "norad_id": 40267,
        "name": "HIMAWARI-8",
        "group": "weather",
        "lat": -0.018004010656228964,
        "lon": -15.555812208321562,
        "alt_km": 35783.95507359018,
        "timestamp": "2025-12-21T07:34:34.187526+00:00",
        "meta_object_name": "HIMAWARI-8",
        "meta_object_id": "2014-060A",
        "meta_epoch": "2025-12-20T22:27:36.488736",
        "meta_mean_motion": 1.00270857,
        "meta_eccentricity": 8.749e-05,
        "meta_inclination": 0.0398,
        "meta_ra_of_asc_node": 138.0355,
        "meta_arg_of_pericenter": 157.7751,
        "meta_mean_anomaly": 271.5211,
        "meta_ephemeris_type": 0,
        "meta_classification_type": "U",
        "meta_norad_cat_id": 40267,
        "meta_element_set_no": 999,
        "meta_rev_at_epoch": 4097,
        "meta_bstar": 0,
        "meta_mean_motion_dot": -2.52e-06,
        "meta_mean_motion_ddot": 0,
        "tle_line1": "1 40267U 14060A   25354.93583899 -.00000252  00000+0  00000+0 0  9991",
        "tle_line2": "2 40267   0.0398 138.0355 0000874 157.7751 271.5211  1.00270857 40977"
      },
      "geometry": {
        "type": "Point",
        "coordinates": [
          -15.555812208321562,
          -0.018004010656228964
        ]
      }
    },
    {
      "type": "Feature",
      "properties": {
        "norad_id": 40367,
        "name": "FENGYUN 2G",
        "group": "weather",
        "lat": -3.8803466091083787,
        "lon": -57.07752760168332,
        "alt_km": 35779.42466734068,
        "timestamp": "2025-12-21T07:34:34.187537+00:00",
        "meta_object_name": "FENGYUN 2G",
        "meta_object_id": "2014-090A",
        "meta_epoch": "2025-12-20T18:50:19.796640",
        "meta_mean_motion": 1.00261225,
        "meta_eccentricity": 0.00026634,
        "meta_inclination": 5.1876,
        "meta_ra_of_asc_node": 75.0062,
        "meta_arg_of_pericenter": 202.6901,
        "meta_mean_anomaly": 193.7687,
        "meta_ephemeris_type": 0,
        "meta_classification_type": "U",
        "meta_norad_cat_id": 40367,
        "meta_element_set_no": 999,
        "meta_rev_at_epoch": 4021,
        "meta_bstar": 0,
        "meta_mean_motion_dot": -2.79e-06,
        "meta_mean_motion_ddot": 0,
        "tle_line1": "1 40367U 14090A   25354.78495135 -.00000279  00000+0  00000+0 0  9992",
        "tle_line2": "2 40367   5.1876  75.0062 0002663 202.6901 193.7687  1.00261225 40213"
      },
      "geometry": {
        "type": "Point",
        "coordinates": [
          -57.07752760168332,
          -3.8803466091083787
        ]
      }
    },
    {
      "type": "Feature",
      "properties": {
        "norad_id": 40732,
        "name": "METEOSAT-11 (MSG-4)",
        "group": "weather",
        "lat": 1.7232092681767648,
        "lon": -146.99611596408442,
        "alt_km": 35782.88802788096,
        "timestamp": "2025-12-21T07:34:34.187548+00:00",
        "meta_object_name": "METEOSAT-11 (MSG-4)",
        "meta_object_id": "2015-034A",
        "meta_epoch": "2025-12-20T21:50:02.585760",
        "meta_mean_motion": 1.00270049,
        "meta_eccentricity": 8.17e-05,
        "meta_inclination": 2.7566,
        "meta_ra_of_asc_node": 71.9806,
        "meta_arg_of_pericenter": 136.6867,
        "meta_mean_anomaly": 217.7783,
        "meta_ephemeris_type": 0,
        "meta_classification_type": "U",
        "meta_norad_cat_id": 40732,
        "meta_element_set_no": 999,
        "meta_rev_at_epoch": 542,
        "meta_bstar": 0,
        "meta_mean_motion_dot": 8.2e-07,
        "meta_mean_motion_ddot": 0,
        "tle_line1": "1 40732U 15034A   25354.90975215  .00000082  00000+0  00000+0 0  9994",
        "tle_line2": "2 40732   2.7566  71.9806 0000817 136.6867 217.7783  1.00270049  5427"
      },
      "geometry": {
        "type": "Point",
        "coordinates": [
          -146.99611596408442,
          1.7232092681767648
        ]
      }
    },
    {
      "type": "Feature",
      "properties": {
        "norad_id": 41105,
        "name": "ELEKTRO-L 2",
        "group": "weather",
        "lat": 5.587953495797886,
        "lon": -170.59766199939898,
        "alt_km": 35785.64797059079,
        "timestamp": "2025-12-21T07:34:34.187558+00:00",
        "meta_object_name": "ELEKTRO-L 2",
        "meta_object_id": "2015-074A",
        "meta_epoch": "2025-12-20T21:43:18.232032",
        "meta_mean_motion": 1.00272542,
        "meta_eccentricity": 0.00035077,
        "meta_inclination": 6.245,
        "meta_ra_of_asc_node": 72.7312,
        "meta_arg_of_pericenter": 208.5495,
        "meta_mean_anomaly": 119.8022,
        "meta_ephemeris_type": 0,
        "meta_classification_type": "U",
        "meta_norad_cat_id": 41105,
        "meta_element_set_no": 999,
        "meta_rev_at_epoch": 3671,
        "meta_bstar": 0,
        "meta_mean_motion_dot": -9.8e-07,
        "meta_mean_motion_ddot": 0,
        "tle_line1": "1 41105U 15074A   25354.90507213 -.00000098  00000+0  00000+0 0  9990",
        "tle_line2": "2 41105   6.2450  72.7312 0003507 208.5495 119.8022  1.00272542 36713"
      },
      "geometry": {
        "type": "Point",
        "coordinates": [
          -170.59766199939898,
          5.587953495797886
        ]
      }
    },
    {
      "type": "Feature",
      "properties": {
        "norad_id": 41752,
        "name": "INSAT-3DR",
        "group": "weather",
        "lat": -0.047632682905846935,
        "lon": -82.22298110800327,
        "alt_km": 35726.54773894622,
        "timestamp": "2025-12-21T07:34:34.187569+00:00",
        "meta_object_name": "INSAT-3DR",
        "meta_object_id": "2016-054A",
        "meta_epoch": "2025-12-20T22:37:38.702784",
        "meta_mean_motion": 1.00271577,
        "meta_eccentricity": 0.00141419,
        "meta_inclination": 0.1117,
        "meta_ra_of_asc_node": 86.3292,
        "meta_arg_of_pericenter": 185.3241,
        "meta_mean_anomaly": 231.5163,
        "meta_ephemeris_type": 0,
        "meta_classification_type": "U",
        "meta_norad_cat_id": 41752,
        "meta_element_set_no": 999,
        "meta_rev_at_epoch": 3403,
        "meta_bstar": 0,
        "meta_mean_motion_dot": -5.4e-07,
        "meta_mean_motion_ddot": 0,
        "tle_line1": "1 41752U 16054A   25354.94280906 -.00000054  00000+0  00000+0 0  9990",
        "tle_line2": "2 41752   0.1117  86.3292 0014141 185.3241 231.5163  1.00271577 34037"
      },
      "geometry": {
        "type": "Point",
        "coordinates": [
          -82.22298110800327,
          -0.047632682905846935
        ]
      }
    },
    {
      "type": "Feature",
      "properties": {
        "norad_id": 41836,
        "name": "HIMAWARI-9",
        "group": "weather",
        "lat": -0.016093802292198613,
        "lon": -15.459123073533043,
        "alt_km": 35779.29195153818,
        "timestamp": "2025-12-21T07:34:34.187580+00:00",
        "meta_object_name": "HIMAWARI-9",
        "meta_object_id": "2016-064A",
        "meta_epoch": "2025-12-20T22:27:36.488736",
        "meta_mean_motion": 1.00274149,
        "meta_eccentricity": 0.00015165,
        "meta_inclination": 0.0171,
        "meta_ra_of_asc_node": 9.6448,
        "meta_arg_of_pericenter": 320.6837,
        "meta_mean_anomaly": 237.0987,
        "meta_ephemeris_type": 0,
        "meta_classification_type": "U",
        "meta_norad_cat_id": 41836,
        "meta_element_set_no": 999,
        "meta_rev_at_epoch": 3342,
        "meta_bstar": 0,
        "meta_mean_motion_dot": 0,
        "meta_mean_motion_ddot": 0,
        "tle_line1": "1 41836U 16064A   25354.93583899  .00000000  00000+0  00000+0 0  9990",
        "tle_line2": "2 41836   0.0171   9.6448 0001516 320.6837 237.0987  1.00274149 33422"
      },
      "geometry": {
        "type": "Point",
        "coordinates": [
          -15.459123073533043,
          -0.016093802292198613
        ]
      }
    }
  ]
}